[{"OBJECT_NAME":"STARLINK-30792","OBJECT_ID":"2023-170Q","EPOCH":"2026-03-09T08:39:02.435904","MEAN_MOTION":15.03789183,"ECCENTRICITY":0.00011754,"INCLINATION":42.9983,"RA_OF_ASC_NODE":197.3811,"ARG_OF_PERICENTER":295.0608,"MEAN_ANOMALY":65.0113,"EPHEMERIS_TYPE":0,"CLASSIFICATION_TYPE":"U","NORAD_CAT_ID":58220,"ELEMENT_SET_NO":999,"REV_AT_EPOCH":13023,"BSTAR":0.00051104631,"MEAN_MOTION_DOT":6.939e-5,"MEAN_MOTION_DDOT":0},{"OBJECT_NAME":"H-2A R\/B","OBJECT_ID":"2012-025E","EPOCH":"2026-03-09T20:41:54.522240","MEAN_MOTION":14.95172532,"ECCENTRICITY":0.00433117,"INCLINATION":98.4741,"RA_OF_ASC_NODE":35.9227,"ARG_OF_PERICENTER":313.9175,"MEAN_ANOMALY":45.8471,"EPHEMERIS_TYPE":0,"CLASSIFICATION_TYPE":"U","NORAD_CAT_ID":38341,"ELEMENT_SET_NO":999,"REV_AT_EPOCH":74824,"BSTAR":0.00044934548,"MEAN_MOTION_DOT":4.959e-5,"MEAN_MOTION_DDOT":0}]
